start=new Date('2022-08-20T00:00:00.000Z').valueOf();
sats=[{"ARG_OF_PERICENTER":"255.7210","PERIAPSIS":"574.786","FILE":"3540406","SITE":"AFWTR","EPOCH":"2022-08-19T10:54:07.395264","REF_FRAME":"TEME","ELEMENT_SET_NO":"999","MEAN_MOTION":"14.96720052","LAUNCH_DATE":"2021-09-14","REV_AT_EPOCH":"5250","OBJECT_NAME":"STARLINK-3119","MEAN_ANOMALY":"104.3588","GP_ID":"210517395","MEAN_MOTION_DOT":"-0.00000128","CLASSIFICATION_TYPE":"U","CENTER_NAME":"EARTH","MEAN_MOTION_DDOT":"0.0000000000000","SEMIMAJOR_AXIS":"6955.176","COUNTRY_CODE":"US","ECCENTRICITY":"0.00032420","RCS_SIZE":"LARGE","NORAD_CAT_ID":"49145","BSTAR":"-0.00000318070000","TLE_LINE1":"1 49145U 21082R   22231.45425226 -.00000128  00000-0 -31807-5 0  9993","TLE_LINE2":"2 49145  69.9983 287.4573 0003242 255.7210 104.3588 14.96720052 52505","MEAN_ELEMENT_THEORY":"SGP4","TIME_SYSTEM":"UTC","RA_OF_ASC_NODE":"287.4573","EPHEMERIS_TYPE":"0","OBJECT_ID":"2021-082R","INCLINATION":"69.9983","PERIOD":"96.210","APOAPSIS":"579.296","DECAY_DATE":null,"OBJECT_TYPE":"PAYLOAD"},{"LAUNCH_DATE":"2021-09-14","OBJECT_NAME":"STARLINK-3116","REV_AT_EPOCH":"5316","MEAN_ANOMALY":"103.8177","GP_ID":"210518143","ELEMENT_SET_NO":"999","REF_FRAME":"TEME","MEAN_MOTION":"14.96717478","SITE":"AFWTR","FILE":"3540406","EPOCH":"2022-08-19T10:45:11.734272","ARG_OF_PERICENTER":"256.2604","PERIAPSIS":"574.693","MEAN_MOTION_DDOT":"0.0000000000000","SEMIMAJOR_AXIS":"6955.184","CLASSIFICATION_TYPE":"U","CENTER_NAME":"EARTH","MEAN_MOTION_DOT":"0.00001927","MEAN_ELEMENT_THEORY":"SGP4","TLE_LINE2":"2 49146  70.0018 307.7349 0003388 256.2604 103.8177 14.96717478 53168","TIME_SYSTEM":"UTC","RCS_SIZE":"LARGE","NORAD_CAT_ID":"49146","BSTAR":"0.00017634000000","TLE_LINE1":"1 49146U 21082S   22231.44805248  .00001927  00000-0  17634-3 0  9995","COUNTRY_CODE":"US","ECCENTRICITY":"0.00033880","OBJECT_TYPE":"PAYLOAD","PERIOD":"96.211","APOAPSIS":"579.405","DECAY_DATE":null,"INCLINATION":"70.0018","RA_OF_ASC_NODE":"307.7349","EPHEMERIS_TYPE":"0","OBJECT_ID":"2021-082S"},{"GP_ID":"210518385","MEAN_ANOMALY":"97.9514","OBJECT_NAME":"STARLINK-3071","REV_AT_EPOCH":"5251","LAUNCH_DATE":"2021-09-14","MEAN_MOTION":"14.96729212","REF_FRAME":"TEME","ELEMENT_SET_NO":"999","EPOCH":"2022-08-19T11:05:17.598336","SITE":"AFWTR","FILE":"3540406","PERIAPSIS":"574.878","ARG_OF_PERICENTER":"262.1296","SEMIMAJOR_AXIS":"6955.148","MEAN_MOTION_DDOT":"0.0000000000000","CENTER_NAME":"EARTH","CLASSIFICATION_TYPE":"U","MEAN_MOTION_DOT":"-0.00000663","TIME_SYSTEM":"UTC","MEAN_ELEMENT_THEORY":"SGP4","TLE_LINE2":"2 49147  70.0000 287.4377 0003069 262.1296  97.9514 14.96729212 52519","TLE_LINE1":"1 49147U 21082T   22231.46200924 -.00000663  00000-0 -49878-4 0  9992","BSTAR":"-0.00004987800000","NORAD_CAT_ID":"49147","RCS_SIZE":"LARGE","ECCENTRICITY":"0.00030690","COUNTRY_CODE":"US","OBJECT_TYPE":"PAYLOAD","DECAY_DATE":null,"APOAPSIS":"579.147","PERIOD":"96.210","INCLINATION":"70.0000","OBJECT_ID":"2021-082T","RA_OF_ASC_NODE":"287.4377","EPHEMERIS_TYPE":"0"},{"INCLINATION":"69.9997","OBJECT_ID":"2021-082U","RA_OF_ASC_NODE":"307.5694","EPHEMERIS_TYPE":"0","OBJECT_TYPE":"PAYLOAD","DECAY_DATE":null,"APOAPSIS":"579.235","PERIOD":"96.210","ECCENTRICITY":"0.00031530","COUNTRY_CODE":"US","TIME_SYSTEM":"UTC","TLE_LINE2":"2 49148  69.9997 307.5694 0003153 248.4308 111.6514 14.96719811 52016","MEAN_ELEMENT_THEORY":"SGP4","BSTAR":"0.00001143200000","TLE_LINE1":"1 49148U 21082U   22231.51002779  .00000039  00000-0  11432-4 0  9997","RCS_SIZE":"LARGE","NORAD_CAT_ID":"49148","CENTER_NAME":"EARTH","CLASSIFICATION_TYPE":"U","MEAN_MOTION_DOT":"0.00000039","SEMIMAJOR_AXIS":"6955.177","MEAN_MOTION_DDOT":"0.0000000000000","EPOCH":"2022-08-19T12:14:26.401056","FILE":"3540705","SITE":"AFWTR","PERIAPSIS":"574.849","ARG_OF_PERICENTER":"248.4308","GP_ID":"210547449","MEAN_ANOMALY":"111.6514","REV_AT_EPOCH":"5201","OBJECT_NAME":"STARLINK-3048","LAUNCH_DATE":"2021-09-14","MEAN_MOTION":"14.96719811","ELEMENT_SET_NO":"999","REF_FRAME":"TEME"},{"ECCENTRICITY":"0.00031180","COUNTRY_CODE":"US","BSTAR":"0.00010028000000","TLE_LINE1":"1 49149U 21082V   22231.48346180  .00001104  00000-0  10028-3 0  9994","NORAD_CAT_ID":"49149","RCS_SIZE":"LARGE","TIME_SYSTEM":"UTC","MEAN_ELEMENT_THEORY":"SGP4","TLE_LINE2":"2 49149  70.0019 327.6882 0003118 252.2611 107.8208 14.98334088 52724","OBJECT_ID":"2021-082V","EPHEMERIS_TYPE":"0","RA_OF_ASC_NODE":"327.6882","INCLINATION":"70.0019","DECAY_DATE":null,"APOAPSIS":"574.212","PERIOD":"96.107","OBJECT_TYPE":"PAYLOAD","PERIAPSIS":"569.878","ARG_OF_PERICENTER":"252.2611","EPOCH":"2022-08-19T11:36:11.099520","SITE":"AFWTR","FILE":"3540437","MEAN_MOTION":"14.98334088","ELEMENT_SET_NO":"999","REF_FRAME":"TEME","GP_ID":"210519823","MEAN_ANOMALY":"107.8208","OBJECT_NAME":"STARLINK-3053","REV_AT_EPOCH":"5272","LAUNCH_DATE":"2021-09-14","MEAN_MOTION_DOT":"0.00001104","CENTER_NAME":"EARTH","CLASSIFICATION_TYPE":"U","SEMIMAJOR_AXIS":"6950.180","MEAN_MOTION_DDOT":"0.0000000000000"},{"COUNTRY_CODE":"US","ECCENTRICITY":"0.00030690","MEAN_ELEMENT_THEORY":"SGP4","TLE_LINE2":"2 49150  70.0016 327.7016 0003069 250.6521 109.4306 14.98335441 52721","TIME_SYSTEM":"UTC","RCS_SIZE":"LARGE","NORAD_CAT_ID":"49150","TLE_LINE1":"1 49150U 21082W   22231.47869638  .00001445  00000-0  12885-3 0  9994","BSTAR":"0.00012885000000","INCLINATION":"70.0016","RA_OF_ASC_NODE":"327.7016","EPHEMERIS_TYPE":"0","OBJECT_ID":"2021-082W","OBJECT_TYPE":"PAYLOAD","PERIOD":"96.107","APOAPSIS":"574.174","DECAY_DATE":null,"FILE":"3540437","SITE":"AFWTR","EPOCH":"2022-08-19T11:29:19.367232","ARG_OF_PERICENTER":"250.6521","PERIAPSIS":"569.908","LAUNCH_DATE":"2021-09-14","OBJECT_NAME":"STARLINK-3104","REV_AT_EPOCH":"5272","MEAN_ANOMALY":"109.4306","GP_ID":"210519812","ELEMENT_SET_NO":"999","REF_FRAME":"TEME","MEAN_MOTION":"14.98335441","CLASSIFICATION_TYPE":"U","CENTER_NAME":"EARTH","MEAN_MOTION_DOT":"0.00001445","MEAN_MOTION_DDOT":"0.0000000000000","SEMIMAJOR_AXIS":"6950.176"},{"INCLINATION":"69.9971","EPHEMERIS_TYPE":"0","RA_OF_ASC_NODE":"287.4855","OBJECT_ID":"2021-082X","OBJECT_TYPE":"PAYLOAD","PERIOD":"96.211","APOAPSIS":"579.416","DECAY_DATE":null,"COUNTRY_CODE":"US","ECCENTRICITY":"0.00033960","MEAN_ELEMENT_THEORY":"SGP4","TLE_LINE2":"2 49151  69.9971 287.4855 0003396 257.1313 102.9466 14.96715714 53703","TIME_SYSTEM":"UTC","RCS_SIZE":"LARGE","NORAD_CAT_ID":"49151","BSTAR":"0.00005919200000","TLE_LINE1":"1 49151U 21082X   22231.44448050  .00000586  00000-0  59192-4 0  9991","CLASSIFICATION_TYPE":"U","CENTER_NAME":"EARTH","MEAN_MOTION_DOT":"0.00000586","MEAN_MOTION_DDOT":"0.0000000000000","SEMIMAJOR_AXIS":"6955.189","FILE":"3540406","SITE":"AFWTR","EPOCH":"2022-08-19T10:40:03.115200","ARG_OF_PERICENTER":"257.1313","PERIAPSIS":"574.692","LAUNCH_DATE":"2021-09-14","REV_AT_EPOCH":"5370","OBJECT_NAME":"STARLINK-3102","MEAN_ANOMALY":"102.9466","GP_ID":"210517886","REF_FRAME":"TEME","ELEMENT_SET_NO":"999","MEAN_MOTION":"14.96715714"},{"COUNTRY_CODE":"US","ECCENTRICITY":"0.00033130","TLE_LINE1":"1 49152U 21082Y   22231.48627971  .00001049  00000-0  99582-4 0  9999","BSTAR":"0.00009958200000","RCS_SIZE":"LARGE","NORAD_CAT_ID":"49152","MEAN_ELEMENT_THEORY":"SGP4","TLE_LINE2":"2 49152  69.9984 287.3686 0003313 252.3400 107.7397 14.96723465 53632","TIME_SYSTEM":"UTC","OBJECT_ID":"2021-082Y","RA_OF_ASC_NODE":"287.3686","EPHEMERIS_TYPE":"0","INCLINATION":"69.9984","APOAPSIS":"579.335","DECAY_DATE":null,"PERIOD":"96.210","OBJECT_TYPE":"PAYLOAD","PERIAPSIS":"574.726","ARG_OF_PERICENTER":"252.3400","EPOCH":"2022-08-19T11:40:14.566944","SITE":"AFWTR","FILE":"3540406","MEAN_MOTION":"14.96723465","ELEMENT_SET_NO":"999","REF_FRAME":"TEME","GP_ID":"210517146","MEAN_ANOMALY":"107.7397","LAUNCH_DATE":"2021-09-14","REV_AT_EPOCH":"5363","OBJECT_NAME":"STARLINK-3081","MEAN_MOTION_DOT":"0.00001049","CLASSIFICATION_TYPE":"U","CENTER_NAME":"EARTH","SEMIMAJOR_AXIS":"6955.165","MEAN_MOTION_DDOT":"0.0000000000000"},{"PERIAPSIS":"574.781","ARG_OF_PERICENTER":"261.7932","EPOCH":"2022-08-19T12:02:13.712640","FILE":"3540406","SITE":"AFWTR","MEAN_MOTION":"14.96721631","ELEMENT_SET_NO":"999","REF_FRAME":"TEME","MEAN_ANOMALY":"98.2858","GP_ID":"210517396","LAUNCH_DATE":"2021-09-14","OBJECT_NAME":"STARLINK-3072","REV_AT_EPOCH":"5372","MEAN_MOTION_DOT":"0.00000049","CLASSIFICATION_TYPE":"U","CENTER_NAME":"EARTH","SEMIMAJOR_AXIS":"6955.171","MEAN_MOTION_DDOT":"0.0000000000000","COUNTRY_CODE":"US","ECCENTRICITY":"0.00032420","TLE_LINE1":"1 49153U 21082Z   22231.50154760  .00000049  00000-0  12300-4 0  9996","BSTAR":"0.00001230000000","RCS_SIZE":"LARGE","NORAD_CAT_ID":"49153","MEAN_ELEMENT_THEORY":"SGP4","TLE_LINE2":"2 49153  69.9985 287.3542 0003242 261.7932  98.2858 14.96721631 53729","TIME_SYSTEM":"UTC","OBJECT_ID":"2021-082Z","RA_OF_ASC_NODE":"287.3542","EPHEMERIS_TYPE":"0","INCLINATION":"69.9985","APOAPSIS":"579.291","DECAY_DATE":null,"PERIOD":"96.210","OBJECT_TYPE":"PAYLOAD"},{"PERIAPSIS":"574.544","ARG_OF_PERICENTER":"251.1236","EPOCH":"2022-08-19T12:07:31.008000","SITE":"AFWTR","FILE":"3540705","MEAN_MOTION":"14.96713923","ELEMENT_SET_NO":"999","REF_FRAME":"TEME","MEAN_ANOMALY":"108.9530","GP_ID":"210548951","LAUNCH_DATE":"2021-09-14","REV_AT_EPOCH":"5309","OBJECT_NAME":"STARLINK-3068","MEAN_MOTION_DOT":"0.00000175","CLASSIFICATION_TYPE":"U","CENTER_NAME":"EARTH","SEMIMAJOR_AXIS":"6955.195","MEAN_MOTION_DDOT":"0.0000000000000","COUNTRY_CODE":"US","ECCENTRICITY":"0.00036170","TLE_LINE1":"1 49154U 21082AA  22231.50522000  .00000175  00000-0  23288-4 0  9990","BSTAR":"0.00002328800000","RCS_SIZE":"LARGE","NORAD_CAT_ID":"49154","MEAN_ELEMENT_THEORY":"SGP4","TLE_LINE2":"2 49154  69.9986 307.5717 0003617 251.1236 108.9530 14.96713923 53097","TIME_SYSTEM":"UTC","OBJECT_ID":"2021-082AA","EPHEMERIS_TYPE":"0","RA_OF_ASC_NODE":"307.5717","INCLINATION":"69.9986","APOAPSIS":"579.576","DECAY_DATE":null,"PERIOD":"96.211","OBJECT_TYPE":"PAYLOAD"}];
